COMMENT,ORIGINATOR,NORAD_CAT_ID,OBJECT_NAME,OBJECT_TYPE,CLASSIFICATION_TYPE,INTLDES,EPOCH,EPOCH_MICROSECONDS,MEAN_MOTION,ECCENTRICITY,INCLINATION,RA_OF_ASC_NODE,ARG_OF_PERICENTER,MEAN_ANOMALY,EPHEMERIS_TYPE,ELEMENT_SET_NO,REV_AT_EPOCH,BSTAR,MEAN_MOTION_DOT,MEAN_MOTION_DDOT,FILE,TLE_LINE0,TLE_LINE1,TLE_LINE2,OBJECT_ID,OBJECT_NUMBER,SEMIMAJOR_AXIS,PERIOD,APOGEE,PERIGEE,DECAYED
"GENERATED VIA SPACETRACK.ORG API","18 SPCS","51110","STARLINK-3344","PAYLOAD","U","22005G","2024-05-21 00:01:58","879488","15.08865055","0.0001196","53.217","1.5776","97.3674","262.7454","0","999","12959","0.0010452","0.00016397","0","4323618","0 STARLINK-3344","1 51110U 22005G   24142.00137592  .00016397  00000-0  10452-2 0  9997","2 51110  53.2170   1.5776 0001196  97.3674 262.7454 15.08865055129596","2022-005G","51110","6917.804","95.436","540.496","538.841","0"
"GENERATED VIA SPACETRACK.ORG API","18 SPCS","51110","STARLINK-3344","PAYLOAD","U","22005G","2024-05-21 20:41:59","972352","15.08857392","0.0000915","53.2176","357.7103","105.4621","254.6472","0","999","13083","0.0013221","0.00020826","0","4323757","0 STARLINK-3344","1 51110U 22005G   24142.86249968  .00020826  00000-0  13221-2 0  9991","2 51110  53.2176 357.7103 0000915 105.4621 254.6472 15.08857392130837","2022-005G","51110","6917.827","95.436","540.325","539.059","0"
"GENERATED VIA SPACETRACK.ORG API","18 SPCS","51110","STARLINK-3344","PAYLOAD","U","22005G","2024-05-21 20:41:59","972352","15.08857392","0.0000915","53.2176","357.7103","105.4621","254.6472","0","999","12972","0.0013221","0.00020826","0","4323884","0 STARLINK-3344","1 51110U 22005G   24142.86249968  .00020826  00000-0  13221-2 0  9991","2 51110  53.2176 357.7103 0000915 105.4621 254.6472 15.08857392129723","2022-005G","51110","6917.827","95.436","540.325","539.059","0"
"GENERATED VIA SPACETRACK.ORG API","18 SPCS","51110","STARLINK-3344","PAYLOAD","U","22005G","2024-05-22 20:32:46","740192","15.08848754","0.0001146","53.2177","353.2502","116.89","243.2209","0","999","13098","0.00095898","0.00015011","0","4324617","0 STARLINK-3344","1 51110U 22005G   24143.85609653  .00015011  00000-0  95898-3 0  9993","2 51110  53.2177 353.2502 0001146 116.8900 243.2209 15.08848754130985","2022-005G","51110","6917.854","95.437","540.511","538.926","0"
"GENERATED VIA SPACETRACK.ORG API","18 SPCS","51110","STARLINK-3344","PAYLOAD","U","22005G","2024-05-22 20:32:46","740192","15.08848754","0.0001146","53.2177","353.2502","116.89","243.2209","0","999","12987","0.00095898","0.00015011","0","4324710","0 STARLINK-3344","1 51110U 22005G   24143.85609653  .00015011  00000-0  95898-3 0  9993","2 51110  53.2177 353.2502 0001146 116.8900 243.2209 15.08848754129871","2022-005G","51110","6917.854","95.437","540.511","538.926","0"
"GENERATED VIA SPACETRACK.ORG API","18 SPCS","51110","STARLINK-3344","PAYLOAD","U","22005G","2024-05-22 23:43:32","856672","15.08853155","0.0001242","53.2175","352.6549","126.2","233.9107","0","999","12989","0.00096614","0.00015127","0","4325336","0 STARLINK-3344","1 51110U 22005G   24143.98857473  .00015127  00000-0  96614-3 0  9997","2 51110  53.2175 352.6549 0001242 126.2000 233.9107 15.08853155129892","2022-005G","51110","6917.840","95.437","540.564","538.846","0"
"GENERATED VIA SPACETRACK.ORG API","18 SPCS","51110","STARLINK-3344","PAYLOAD","U","22005G","2024-05-23 18:48:10","598400","15.08846338","0.0001495","53.2185","349.0858","126.7903","233.3226","0","999","13112","0.00040554","0.00006173","0","4325478","0 STARLINK-3344","1 51110U 22005G   24144.78345600  .00006173  00000-0  40554-3 0  9993","2 51110  53.2185 349.0858 0001495 126.7903 233.3226 15.08846338131123","2022-005G","51110","6917.861","95.437","540.760","538.692","0"
"GENERATED VIA SPACETRACK.ORG API","18 SPCS","51110","STARLINK-3344","PAYLOAD","U","22005G","2024-05-23 18:48:10","598400","15.08846338","0.0001495","53.2185","349.0858","126.7903","233.3226","0","999","13001","0.00040554","0.00006173","0","4325574","0 STARLINK-3344","1 51110U 22005G   24144.78345600  .00006173  00000-0  40554-3 0  9993","2 51110  53.2185 349.0858 0001495 126.7903 233.3226 15.08846338130010","2022-005G","51110","6917.861","95.437","540.760","538.692","0"
"GENERATED VIA SPACETRACK.ORG API","18 SPCS","51110","STARLINK-3344","PAYLOAD","U","22005G","2024-05-24 13:52:47","184960","15.08866967","0.0001375","53.2191","345.5081","138.0263","222.0835","0","999","13013","0.00072681","0.00011307","0","4326215","0 STARLINK-3344","1 51110U 22005G   24145.57832390  .00011307  00000-0  72681-3 0  9999","2 51110  53.2191 345.5081 0001375 138.0263 222.0835 15.08866967130132","2022-005G","51110","6917.798","95.436","540.614","538.712","0"
"GENERATED VIA SPACETRACK.ORG API","18 SPCS","51110","STARLINK-3344","PAYLOAD","U","22005G","2024-05-24 20:14:19","238208","15.0888573","0.0001087","53.2173","344.3287","102.3481","257.7633","0","999","13128","0.00124","0.00019526","0","4326399","0 STARLINK-3344","1 51110U 22005G   24145.84327822  .00019526  00000-0  12400-2 0  9991","2 51110  53.2173 344.3287 0001087 102.3481 257.7633 15.08885730131280","2022-005G","51110","6917.741","95.435","540.358","538.854","0"
"GENERATED VIA SPACETRACK.ORG API","18 SPCS","51110","STARLINK-3344","PAYLOAD","U","22005G","2024-05-24 20:14:19","238208","15.0888573","0.0001087","53.2173","344.3287","102.3481","257.7633","0","999","13017","0.00124","0.00019526","0","4326555","0 STARLINK-3344","1 51110U 22005G   24145.84327822  .00019526  00000-0  12400-2 0  9991","2 51110  53.2173 344.3287 0001087 102.3481 257.7633 15.08885730130177","2022-005G","51110","6917.741","95.435","540.358","538.854","0"
"GENERATED VIA SPACETRACK.ORG API","18 SPCS","51110","STARLINK-3344","PAYLOAD","U","22005G","2024-05-25 05:46:37","671456","15.08887432","0.0001101","53.2172","342.5537","115.7627","244.3479","0","999","13134","0.0010133","0.00015896","0","4326976","0 STARLINK-3344","1 51110U 22005G   24146.24071379  .00015896  00000-0  10133-2 0  9996","2 51110  53.2172 342.5537 0001101 115.7627 244.3479 15.08887432131342","2022-005G","51110","6917.735","95.435","540.362","538.839","0"
"GENERATED VIA SPACETRACK.ORG API","18 SPCS","51110","STARLINK-3344","PAYLOAD","U","22005G","2024-05-25 13:43:34","295808","15.08827477","0.0002881","53.2163","341.0598","105.8027","254.3283","0","999","13028","-0.00092766","-0.00015018","0","4327213","0 STARLINK-3344","1 51110U 22005G   24146.57192472 -.00015018  00000-0 -92766-3 0  9991","2 51110  53.2163 341.0598 0002881 105.8027 254.3283 15.08827477130282","2022-005G","51110","6917.919","95.438","541.777","537.791","0"
"GENERATED VIA SPACETRACK.ORG API","18 SPCS","51110","STARLINK-3344","PAYLOAD","U","22005G","2024-05-25 20:05:08","66688","15.08791726","0.0001798","53.2178","339.8804","126.2949","233.821","0","999","13143","-0.0014502","-0.00023264","0","4327395","0 STARLINK-3344","1 51110U 22005G   24146.83689892 -.00023264  00000-0 -14502-2 0  9990","2 51110  53.2178 339.8804 0001798 126.2949 233.8210 15.08791726131436","2022-005G","51110","6918.028","95.441","541.137","538.649","0"
"GENERATED VIA SPACETRACK.ORG API","18 SPCS","51110","STARLINK-3344","PAYLOAD","U","22005G","2024-05-26 05:37:27","543648","15.08806324","0.0001028","53.2165","338.0838","46.843","313.2648","0","999","13149","0.00059334","0.00009159","0","4327923","0 STARLINK-3344","1 51110U 22005G   24147.23434657  .00009159  00000-0  59334-3 0  9990","2 51110  53.2165 338.0838 0001028  46.8430 313.2648 15.08806324131493","2022-005G","51110","6917.983","95.440","540.559","539.137","0"
"GENERATED VIA SPACETRACK.ORG API","18 SPCS","51110","STARLINK-3344","PAYLOAD","U","22005G","2024-05-26 05:37:27","543648","15.08806324","0.0001028","53.2165","338.0838","46.843","313.2648","0","999","13038","0.00059334","0.00009159","0","4328092","0 STARLINK-3344","1 51110U 22005G   24147.23434657  .00009159  00000-0  59334-3 0  9990","2 51110  53.2165 338.0838 0001028  46.8430 313.2648 15.08806324130380","2022-005G","51110","6917.983","95.440","540.559","539.137","0"
"GENERATED VIA SPACETRACK.ORG API","18 SPCS","51110","STARLINK-3344","PAYLOAD","U","22005G","2024-05-26 19:55:55","975872","15.08839793","0.0000922","53.2172","335.4095","69.0366","291.0724","0","999","13158","0.0013177","0.00020745","0","4328286","0 STARLINK-3344","1 51110U 22005G   24147.83050898  .00020745  00000-0  13177-2 0  9995","2 51110  53.2172 335.4095 0000922  69.0366 291.0724 15.08839793131588","2022-005G","51110","6917.881","95.438","540.384","539.108","0"
"GENERATED VIA SPACETRACK.ORG API","18 SPCS","51110","STARLINK-3344","PAYLOAD","U","22005G","2024-05-26 21:31:19","67808","15.08844619","0.0000894","53.2169","335.1128","69.0473","291.0614","0","999","13048","0.0014086","0.00022204","0","4328412","0 STARLINK-3344","1 51110U 22005G   24147.89674847  .00022204  00000-0  14086-2 0  9999","2 51110  53.2169 335.1128 0000894  69.0473 291.0614 15.08844619130484","2022-005G","51110","6917.866","95.437","540.350","539.113","0"
"GENERATED VIA SPACETRACK.ORG API","18 SPCS","51110","STARLINK-3344","PAYLOAD","U","22005G","2024-05-27 19:46:42","549312","15.08859291","0.0000952","53.2178","330.9481","78.6418","281.4681","0","999","13173","0.00081607","0.0001273","0","4329124","0 STARLINK-3344","1 51110U 22005G   24148.82410358  .00012730  00000-0  81607-3 0  9995","2 51110  53.2178 330.9481 0000952  78.6418 281.4681 15.08859291131737","2022-005G","51110","6917.821","95.436","540.345","539.028","0"
"GENERATED VIA SPACETRACK.ORG API","18 SPCS","51110","STARLINK-3344","PAYLOAD","U","22005G","2024-05-27 21:22:05","604960","15.08861194","0.0000946","53.2178","330.6509","79.0613","281.0486","0","999","13063","0.00083266","0.00012996","0","4329288","0 STARLINK-3344","1 51110U 22005G   24148.89034265  .00012996  00000-0  83266-3 0  9998","2 51110  53.2178 330.6509 0000946  79.0613 281.0486 15.08861194130632","2022-005G","51110","6917.816","95.436","540.335","539.026","0"
